CCSDS_OMM_VERS = 2.0
CREATION_DATE  = 
ORIGINATOR     = 

OBJECT_NAME    = CAS500-2 RIDESHARE OBJECT X
OBJECT_ID      = 2026-100X
CENTER_NAME    = EARTH
REF_FRAME      = TEME
TIME_SYSTEM    = UTC
MEAN_ELEMENT_THEORY = SGP/SGP4

EPOCH          = 2026-05-23T06:18:07.642080
MEAN_MOTION    = 14.91022931
ECCENTRICITY   = .0002814
INCLINATION    = 97.7371
RA_OF_ASC_NODE = 41.1628
ARG_OF_PERICENTER = 213.7391
MEAN_ANOMALY   = 146.3649

EPHEMERIS_TYPE = 0
CLASSIFICATION_TYPE = U
NORAD_CAT_ID   = 69001
ELEMENT_SET_NO = 999
REV_AT_EPOCH   = 297
BSTAR          = .26272E-3
MEAN_MOTION_DOT = .2544E-4
MEAN_MOTION_DDOT = 0

CCSDS_OMM_VERS = 2.0
CREATION_DATE  = 
ORIGINATOR     = 

OBJECT_NAME    = CAS500-2 RIDESHARE OBJECT Y
OBJECT_ID      = 2026-100Y
CENTER_NAME    = EARTH
REF_FRAME      = TEME
TIME_SYSTEM    = UTC
MEAN_ELEMENT_THEORY = SGP/SGP4

EPOCH          = 2026-05-23T10:41:42.851040
MEAN_MOTION    = 14.92518324
ECCENTRICITY   = .0003469
INCLINATION    = 97.7373
RA_OF_ASC_NODE = 41.3849
ARG_OF_PERICENTER = 76.0626
MEAN_ANOMALY   = 284.0979

EPHEMERIS_TYPE = 0
CLASSIFICATION_TYPE = U
NORAD_CAT_ID   = 69002
ELEMENT_SET_NO = 999
REV_AT_EPOCH   = 300
BSTAR          = .21161E-3
MEAN_MOTION_DOT = .2117E-4
MEAN_MOTION_DDOT = 0

CCSDS_OMM_VERS = 2.0
CREATION_DATE  = 
ORIGINATOR     = 

OBJECT_NAME    = CAS500-2 RIDESHARE OBJECT Z
OBJECT_ID      = 2026-100Z
CENTER_NAME    = EARTH
REF_FRAME      = TEME
TIME_SYSTEM    = UTC
MEAN_ELEMENT_THEORY = SGP/SGP4

EPOCH          = 2026-05-23T12:00:04.000320
MEAN_MOTION    = 14.91805612
ECCENTRICITY   = .0001958
INCLINATION    = 97.7358
RA_OF_ASC_NODE = 41.4109
ARG_OF_PERICENTER = 187.1657
MEAN_ANOMALY   = 44.8772

EPHEMERIS_TYPE = 0
CLASSIFICATION_TYPE = U
NORAD_CAT_ID   = 69003
ELEMENT_SET_NO = 999
REV_AT_EPOCH   = 130
BSTAR          = .86073E-3
MEAN_MOTION_DOT = .8634E-4
MEAN_MOTION_DDOT = 0

CCSDS_OMM_VERS = 2.0
CREATION_DATE  = 
ORIGINATOR     = 

OBJECT_NAME    = GEN1A-1
OBJECT_ID      = 2026-100AA
CENTER_NAME    = EARTH
REF_FRAME      = TEME
TIME_SYSTEM    = UTC
MEAN_ELEMENT_THEORY = SGP/SGP4

EPOCH          = 2026-05-23T11:28:35.569344
MEAN_MOTION    = 15.19999633
ECCENTRICITY   = .0006152
INCLINATION    = 97.4071
RA_OF_ASC_NODE = 41.7403
ARG_OF_PERICENTER = 97.2227
MEAN_ANOMALY   = 262.9707

EPHEMERIS_TYPE = 0
CLASSIFICATION_TYPE = U
NORAD_CAT_ID   = 69004
ELEMENT_SET_NO = 999
REV_AT_EPOCH   = 306
BSTAR          = .10432E-3
MEAN_MOTION_DOT = .2179E-4
MEAN_MOTION_DDOT = 0

CCSDS_OMM_VERS = 2.0
CREATION_DATE  = 
ORIGINATOR     = 

OBJECT_NAME    = GEN1A-2
OBJECT_ID      = 2026-100AB
CENTER_NAME    = EARTH
REF_FRAME      = TEME
TIME_SYSTEM    = UTC
MEAN_ELEMENT_THEORY = SGP/SGP4

EPOCH          = 2026-05-23T11:26:08.786976
MEAN_MOTION    = 15.20130560
ECCENTRICITY   = .0007046
INCLINATION    = 97.4059
RA_OF_ASC_NODE = 41.7352
ARG_OF_PERICENTER = 101.1723
MEAN_ANOMALY   = 259.0305

EPHEMERIS_TYPE = 0
CLASSIFICATION_TYPE = U
NORAD_CAT_ID   = 69005
ELEMENT_SET_NO = 999
REV_AT_EPOCH   = 306
BSTAR          = .11204E-3
MEAN_MOTION_DOT = .2355E-4
MEAN_MOTION_DDOT = 0

CCSDS_OMM_VERS = 2.0
CREATION_DATE  = 
ORIGINATOR     = 

OBJECT_NAME    = JEN-1
OBJECT_ID      = 2026-100AC
CENTER_NAME    = EARTH
REF_FRAME      = TEME
TIME_SYSTEM    = UTC
MEAN_ELEMENT_THEORY = SGP/SGP4

EPOCH          = 2026-05-23T11:29:57.143040
MEAN_MOTION    = 15.19953916
ECCENTRICITY   = .0006065
INCLINATION    = 97.4071
RA_OF_ASC_NODE = 41.7395
ARG_OF_PERICENTER = 93.8112
MEAN_ANOMALY   = 266.3816

EPHEMERIS_TYPE = 0
CLASSIFICATION_TYPE = U
NORAD_CAT_ID   = 69006
ELEMENT_SET_NO = 999
REV_AT_EPOCH   = 305
BSTAR          = .17019E-3
MEAN_MOTION_DOT = .3594E-4
MEAN_MOTION_DDOT = 0

CCSDS_OMM_VERS = 2.0
CREATION_DATE  = 
ORIGINATOR     = 

OBJECT_NAME    = BRO-21
OBJECT_ID      = 2026-100AD
CENTER_NAME    = EARTH
REF_FRAME      = TEME
TIME_SYSTEM    = UTC
MEAN_ELEMENT_THEORY = SGP/SGP4

EPOCH          = 2026-05-23T11:04:32.545920
MEAN_MOTION    = 15.21275942
ECCENTRICITY   = .0009225
INCLINATION    = 97.4066
RA_OF_ASC_NODE = 41.7595
ARG_OF_PERICENTER = 132.1915
MEAN_ANOMALY   = 228.0105

EPHEMERIS_TYPE = 0
CLASSIFICATION_TYPE = U
NORAD_CAT_ID   = 69007
ELEMENT_SET_NO = 999
REV_AT_EPOCH   = 304
BSTAR          = .11757E-3
MEAN_MOTION_DOT = .2561E-4
MEAN_MOTION_DDOT = 0

CCSDS_OMM_VERS = 2.0
CREATION_DATE  = 
ORIGINATOR     = 

OBJECT_NAME    = YAM-14
OBJECT_ID      = 2026-100AE
CENTER_NAME    = EARTH
REF_FRAME      = TEME
TIME_SYSTEM    = UTC
MEAN_ELEMENT_THEORY = SGP/SGP4

EPOCH          = 2026-05-23T11:08:02.302656
MEAN_MOTION    = 14.91022485
ECCENTRICITY   = .0002857
INCLINATION    = 97.7372
RA_OF_ASC_NODE = 41.3603
ARG_OF_PERICENTER = 215.1868
MEAN_ANOMALY   = 144.9162

EPHEMERIS_TYPE = 0
CLASSIFICATION_TYPE = U
NORAD_CAT_ID   = 69008
ELEMENT_SET_NO = 999
REV_AT_EPOCH   = 300
BSTAR          = .12343E-3
MEAN_MOTION_DOT = .1166E-4
MEAN_MOTION_DDOT = 0

CCSDS_OMM_VERS = 2.0
CREATION_DATE  = 
ORIGINATOR     = 

OBJECT_NAME    = CAS500-2 RIDESHARE OBJECT AF
OBJECT_ID      = 2026-100AF
CENTER_NAME    = EARTH
REF_FRAME      = TEME
TIME_SYSTEM    = UTC
MEAN_ELEMENT_THEORY = SGP/SGP4

EPOCH          = 2026-05-23T11:38:22.705728
MEAN_MOTION    = 15.19603023
ECCENTRICITY   = .0006866
INCLINATION    = 97.4063
RA_OF_ASC_NODE = 41.7282
ARG_OF_PERICENTER = 74.9840
MEAN_ANOMALY   = 285.2155

EPHEMERIS_TYPE = 0
CLASSIFICATION_TYPE = U
NORAD_CAT_ID   = 69009
ELEMENT_SET_NO = 999
REV_AT_EPOCH   = 305
BSTAR          = .40623E-3
MEAN_MOTION_DOT = .8591E-4
MEAN_MOTION_DDOT = 0

CCSDS_OMM_VERS = 2.0
CREATION_DATE  = 
ORIGINATOR     = 

OBJECT_NAME    = DRISHTI
OBJECT_ID      = 2026-100AG
CENTER_NAME    = EARTH
REF_FRAME      = TEME
TIME_SYSTEM    = UTC
MEAN_ELEMENT_THEORY = SGP/SGP4

EPOCH          = 2026-05-23T11:22:36.875424
MEAN_MOTION    = 15.20307481
ECCENTRICITY   = .0006985
INCLINATION    = 97.4065
RA_OF_ASC_NODE = 41.7406
ARG_OF_PERICENTER = 108.6893
MEAN_ANOMALY   = 251.5101

EPHEMERIS_TYPE = 0
CLASSIFICATION_TYPE = U
NORAD_CAT_ID   = 69010
ELEMENT_SET_NO = 999
REV_AT_EPOCH   = 305
BSTAR          = .85168E-4
MEAN_MOTION_DOT = .1783E-4
MEAN_MOTION_DDOT = 0

CCSDS_OMM_VERS = 2.0
CREATION_DATE  = 
ORIGINATOR     = 

OBJECT_NAME    = CAS500-2 RIDESHARE OBJECT AH
OBJECT_ID      = 2026-100AH
CENTER_NAME    = EARTH
REF_FRAME      = TEME
TIME_SYSTEM    = UTC
MEAN_ELEMENT_THEORY = SGP/SGP4

EPOCH          = 2026-05-23T11:21:27.504864
MEAN_MOTION    = 15.20376939
ECCENTRICITY   = .0006367
INCLINATION    = 97.4069
RA_OF_ASC_NODE = 41.7473
ARG_OF_PERICENTER = 112.0115
MEAN_ANOMALY   = 248.1797

EPHEMERIS_TYPE = 0
CLASSIFICATION_TYPE = U
NORAD_CAT_ID   = 69011
ELEMENT_SET_NO = 999
REV_AT_EPOCH   = 305
BSTAR          = .16741E-3
MEAN_MOTION_DOT = .3578E-4
MEAN_MOTION_DDOT = 0

CCSDS_OMM_VERS = 2.0
CREATION_DATE  = 
ORIGINATOR     = 

OBJECT_NAME    = JACKAL-004
OBJECT_ID      = 2026-100AJ
CENTER_NAME    = EARTH
REF_FRAME      = TEME
TIME_SYSTEM    = UTC
MEAN_ELEMENT_THEORY = SGP/SGP4

EPOCH          = 2026-05-23T11:19:42.547008
MEAN_MOTION    = 15.20478042
ECCENTRICITY   = .0007104
INCLINATION    = 97.4064
RA_OF_ASC_NODE = 41.7435
ARG_OF_PERICENTER = 113.0872
MEAN_ANOMALY   = 247.1113

EPHEMERIS_TYPE = 0
CLASSIFICATION_TYPE = U
NORAD_CAT_ID   = 69012
ELEMENT_SET_NO = 999
REV_AT_EPOCH   = 305
BSTAR          = .13569E-3
MEAN_MOTION_DOT = .2896E-4
MEAN_MOTION_DDOT = 0

