CAS500-2 RIDESHARE OBJE*
1 69001U 26100X   26143.26258845  .00002544  00000+0  26272-3 0  9997
2 69001  97.7371  41.1628 0002814 213.7391 146.3649 14.91022931  2978
CAS500-2 RIDESHARE OBJE*
1 69002U 26100Y   26143.44563485  .00002117  00000+0  21161-3 0  9995
2 69002  97.7373  41.3849 0003469  76.0626 284.0979 14.92518324  3004
CAS500-2 RIDESHARE OBJE*
1 69003U 26100Z   26143.50004630  .00008634  00000+0  86073-3 0  9998
2 69003  97.7358  41.4109 0001958 187.1657  44.8772 14.91805612  1309
GEN1A-1                 
1 69004U 26100AA  26143.47818946  .00002179  00000+0  10432-3 0  9992
2 69004  97.4071  41.7403 0006152  97.2227 262.9707 15.19999633  3068
GEN1A-2                 
1 69005U 26100AB  26143.47649059  .00002355  00000+0  11204-3 0  9994
2 69005  97.4059  41.7352 0007046 101.1723 259.0305 15.20130560  3066
JEN-1                   
1 69006U 26100AC  26143.47913360  .00003594  00000+0  17019-3 0  9990
2 69006  97.4071  41.7395 0006065  93.8112 266.3816 15.19953916  3050
BRO-21                  
1 69007U 26100AD  26143.46148780  .00002561  00000+0  11757-3 0  9992
2 69007  97.4066  41.7595 0009225 132.1915 228.0105 15.21275942  3040
YAM-14                  
1 69008U 26100AE  26143.46391554  .00001166  00000+0  12343-3 0  9994
2 69008  97.7372  41.3603 0002857 215.1868 144.9162 14.91022485  3006
CAS500-2 RIDESHARE OBJE*
1 69009U 26100AF  26143.48498502  .00008591  00000+0  40623-3 0  9999
2 69009  97.4063  41.7282 0006866  74.9840 285.2155 15.19603023  3053
DRISHTI                 
1 69010U 26100AG  26143.47403791  .00001783  00000+0  85168-4 0  9996
2 69010  97.4065  41.7406 0006985 108.6893 251.5101 15.20307481  3058
CAS500-2 RIDESHARE OBJE*
1 69011U 26100AH  26143.47323501  .00003578  00000+0  16741-3 0  9991
2 69011  97.4069  41.7473 0006367 112.0115 248.1797 15.20376939  3054
JACKAL-004              
1 69012U 26100AJ  26143.47202022  .00002896  00000+0  13569-3 0  9993
2 69012  97.4064  41.7435 0007104 113.0872 247.1113 15.20478042  3058
